[{"OBJECT_NAME":"STARLINK-33938","OBJECT_ID":"2025-091D","EPOCH":"2025-11-23T23:23:13.883136","MEAN_MOTION":15.27601751,"ECCENTRICITY":0.00015458,"INCLINATION":43.0022,"RA_OF_ASC_NODE":289.6249,"ARG_OF_PERICENTER":263.0283,"MEAN_ANOMALY":97.0393,"EPHEMERIS_TYPE":0,"CLASSIFICATION_TYPE":"U","NORAD_CAT_ID":63778,"ELEMENT_SET_NO":999,"REV_AT_EPOCH":3282,"BSTAR":0.0013586064,"MEAN_MOTION_DOT":0.00037338,"MEAN_MOTION_DDOT":0},{"OBJECT_NAME":"STARLINK-33881","OBJECT_ID":"2025-091E","EPOCH":"2025-11-24T23:30:43.792128","MEAN_MOTION":15.27586251,"ECCENTRICITY":0.000131,"INCLINATION":43.0002,"RA_OF_ASC_NODE":284.2671,"ARG_OF_PERICENTER":272.2412,"MEAN_ANOMALY":87.8289,"EPHEMERIS_TYPE":0,"CLASSIFICATION_TYPE":"U","NORAD_CAT_ID":63779,"ELEMENT_SET_NO":999,"REV_AT_EPOCH":3288,"BSTAR":0.00050794,"MEAN_MOTION_DOT":0.00013744,"MEAN_MOTION_DDOT":0},{"OBJECT_NAME":"STARLINK-33846","OBJECT_ID":"2025-091F","EPOCH":"2025-11-24T13:50:59.075232","MEAN_MOTION":15.27599585,"ECCENTRICITY":6.779e-5,"INCLINATION":42.9994,"RA_OF_ASC_NODE":286.4039,"ARG_OF_PERICENTER":289.5519,"MEAN_ANOMALY":70.526,"EPHEMERIS_TYPE":0,"CLASSIFICATION_TYPE":"U","NORAD_CAT_ID":63780,"ELEMENT_SET_NO":999,"REV_AT_EPOCH":3287,"BSTAR":0.0012127506,"MEAN_MOTION_DOT":0.00033281,"MEAN_MOTION_DDOT":0},{"OBJECT_NAME":"STARLINK-33883","OBJECT_ID":"2025-091G","EPOCH":"2025-11-24T21:36:13.297824","MEAN_MOTION":15.27620853,"ECCENTRICITY":5.6e-5,"INCLINATION":42.998,"RA_OF_ASC_NODE":284.5364,"ARG_OF_PERICENTER":58.1311,"MEAN_ANOMALY":301.9595,"EPHEMERIS_TYPE":0,"CLASSIFICATION_TYPE":"U","NORAD_CAT_ID":63781,"ELEMENT_SET_NO":999,"REV_AT_EPOCH":3287,"BSTAR":0.0015093,"MEAN_MOTION_DOT":0.00041557,"MEAN_MOTION_DDOT":0},{"OBJECT_NAME":"STARLINK-33842","OBJECT_ID":"2025-091H","EPOCH":"2025-11-24T22:50:01.397184","MEAN_MOTION":15.27607507,"ECCENTRICITY":0.0001076,"INCLINATION":43.0006,"RA_OF_ASC_NODE":284.051,"ARG_OF_PERICENTER":215.516,"MEAN_ANOMALY":144.562,"EPHEMERIS_TYPE":0,"CLASSIFICATION_TYPE":"U","NORAD_CAT_ID":63782,"ELEMENT_SET_NO":999,"REV_AT_EPOCH":3297,"BSTAR":0.00126,"MEAN_MOTION_DOT":0.00034601,"MEAN_MOTION_DDOT":0},{"OBJECT_NAME":"STARLINK-33892","OBJECT_ID":"2025-091J","EPOCH":"2025-11-24T07:06:36.266976","MEAN_MOTION":15.2763359,"ECCENTRICITY":0.00020289,"INCLINATION":43.004,"RA_OF_ASC_NODE":287.735,"ARG_OF_PERICENTER":271.2807,"MEAN_ANOMALY":88.7813,"EPHEMERIS_TYPE":0,"CLASSIFICATION_TYPE":"U","NORAD_CAT_ID":63783,"ELEMENT_SET_NO":999,"REV_AT_EPOCH":3278,"BSTAR":0.0013084543,"MEAN_MOTION_DOT":0.00035979,"MEAN_MOTION_DDOT":0},{"OBJECT_NAME":"STARLINK-33933","OBJECT_ID":"2025-091K","EPOCH":"2025-11-24T13:24:37.508544","MEAN_MOTION":15.27594465,"ECCENTRICITY":9.637e-5,"INCLINATION":43.0009,"RA_OF_ASC_NODE":279.3113,"ARG_OF_PERICENTER":17.861,"MEAN_ANOMALY":342.2276,"EPHEMERIS_TYPE":0,"CLASSIFICATION_TYPE":"U","NORAD_CAT_ID":63784,"ELEMENT_SET_NO":999,"REV_AT_EPOCH":3301,"BSTAR":0.0013405471,"MEAN_MOTION_DOT":0.00036827,"MEAN_MOTION_DDOT":0},{"OBJECT_NAME":"STARLINK-33906","OBJECT_ID":"2025-091L","EPOCH":"2025-11-25T03:41:44.615040","MEAN_MOTION":15.27603144,"ECCENTRICITY":4.74e-5,"INCLINATION":42.9993,"RA_OF_ASC_NODE":282.9938,"ARG_OF_PERICENTER":246.8545,"MEAN_ANOMALY":113.2256,"EPHEMERIS_TYPE":0,"CLASSIFICATION_TYPE":"U","NORAD_CAT_ID":63785,"ELEMENT_SET_NO":999,"REV_AT_EPOCH":3286,"BSTAR":0.00099593,"MEAN_MOTION_DOT":0.00027264,"MEAN_MOTION_DDOT":0},{"OBJECT_NAME":"STARLINK-33923","OBJECT_ID":"2025-091M","EPOCH":"2025-11-24T22:57:25.318656","MEAN_MOTION":15.27595632,"ECCENTRICITY":0.0001118,"INCLINATION":43.0002,"RA_OF_ASC_NODE":284.0924,"ARG_OF_PERICENTER":250.4065,"MEAN_ANOMALY":109.6666,"EPHEMERIS_TYPE":0,"CLASSIFICATION_TYPE":"U","NORAD_CAT_ID":63786,"ELEMENT_SET_NO":999,"REV_AT_EPOCH":3283,"BSTAR":0.0010553,"MEAN_MOTION_DOT":0.00028904,"MEAN_MOTION_DDOT":0},{"OBJECT_NAME":"STARLINK-33947","OBJECT_ID":"2025-091N","EPOCH":"2025-11-24T14:03:56.581056","MEAN_MOTION":15.27612879,"ECCENTRICITY":9.382e-5,"INCLINATION":43.0012,"RA_OF_ASC_NODE":286.4717,"ARG_OF_PERICENTER":270.5868,"MEAN_ANOMALY":89.4877,"EPHEMERIS_TYPE":0,"CLASSIFICATION_TYPE":"U","NORAD_CAT_ID":63787,"ELEMENT_SET_NO":999,"REV_AT_EPOCH":3282,"BSTAR":0.0016458183,"MEAN_MOTION_DOT":0.00045352,"MEAN_MOTION_DDOT":0},{"OBJECT_NAME":"STARLINK-33882","OBJECT_ID":"2025-091P","EPOCH":"2025-11-25T03:28:47.313984","MEAN_MOTION":15.27598995,"ECCENTRICITY":0.0001878,"INCLINATION":43.0045,"RA_OF_ASC_NODE":282.9252,"ARG_OF_PERICENTER":274.8626,"MEAN_ANOMALY":85.2012,"EPHEMERIS_TYPE":0,"CLASSIFICATION_TYPE":"U","NORAD_CAT_ID":63788,"ELEMENT_SET_NO":999,"REV_AT_EPOCH":3290,"BSTAR":0.0011974,"MEAN_MOTION_DOT":0.00032855,"MEAN_MOTION_DDOT":0},{"OBJECT_NAME":"STARLINK-33875","OBJECT_ID":"2025-091Q","EPOCH":"2025-11-24T22:29:40.040736","MEAN_MOTION":15.2758103,"ECCENTRICITY":0.0002292,"INCLINATION":43.0042,"RA_OF_ASC_NODE":283.9507,"ARG_OF_PERICENTER":281.2352,"MEAN_ANOMALY":78.8242,"EPHEMERIS_TYPE":0,"CLASSIFICATION_TYPE":"U","NORAD_CAT_ID":63789,"ELEMENT_SET_NO":999,"REV_AT_EPOCH":3288,"BSTAR":0.0014041,"MEAN_MOTION_DOT":0.00038581,"MEAN_MOTION_DDOT":0},{"OBJECT_NAME":"STARLINK-33869","OBJECT_ID":"2025-091R","EPOCH":"2025-11-24T23:54:34.288416","MEAN_MOTION":15.27591962,"ECCENTRICITY":8.2e-5,"INCLINATION":43,"RA_OF_ASC_NODE":283.5256,"ARG_OF_PERICENTER":235.9996,"MEAN_ANOMALY":124.0778,"EPHEMERIS_TYPE":0,"CLASSIFICATION_TYPE":"U","NORAD_CAT_ID":63790,"ELEMENT_SET_NO":999,"REV_AT_EPOCH":3284,"BSTAR":0.00072689,"MEAN_MOTION_DOT":0.00019801,"MEAN_MOTION_DDOT":0},{"OBJECT_NAME":"STARLINK-33935","OBJECT_ID":"2025-091S","EPOCH":"2025-11-24T13:58:23.934144","MEAN_MOTION":15.27592411,"ECCENTRICITY":0.00019648,"INCLINATION":42.9919,"RA_OF_ASC_NODE":286.446,"ARG_OF_PERICENTER":52.2438,"MEAN_ANOMALY":307.8591,"EPHEMERIS_TYPE":0,"CLASSIFICATION_TYPE":"U","NORAD_CAT_ID":63791,"ELEMENT_SET_NO":999,"REV_AT_EPOCH":3293,"BSTAR":0.0011699189,"MEAN_MOTION_DOT":0.00032085,"MEAN_MOTION_DDOT":0},{"OBJECT_NAME":"STARLINK-33916","OBJECT_ID":"2025-091T","EPOCH":"2025-11-24T13:52:51.304512","MEAN_MOTION":15.27592135,"ECCENTRICITY":0.00024956,"INCLINATION":42.9894,"RA_OF_ASC_NODE":286.4166,"ARG_OF_PERICENTER":54.497,"MEAN_ANOMALY":305.6114,"EPHEMERIS_TYPE":0,"CLASSIFICATION_TYPE":"U","NORAD_CAT_ID":63792,"ELEMENT_SET_NO":999,"REV_AT_EPOCH":3282,"BSTAR":0.001210837,"MEAN_MOTION_DOT":0.00033222,"MEAN_MOTION_DDOT":0},{"OBJECT_NAME":"STARLINK-33925","OBJECT_ID":"2025-091U","EPOCH":"2025-11-24T22:25:58.093824","MEAN_MOTION":15.27571593,"ECCENTRICITY":0.0001305,"INCLINATION":43.0022,"RA_OF_ASC_NODE":283.9268,"ARG_OF_PERICENTER":277.1792,"MEAN_ANOMALY":82.8911,"EPHEMERIS_TYPE":0,"CLASSIFICATION_TYPE":"U","NORAD_CAT_ID":63793,"ELEMENT_SET_NO":999,"REV_AT_EPOCH":3299,"BSTAR":0.0019159,"MEAN_MOTION_DOT":0.00052823,"MEAN_MOTION_DDOT":0},{"OBJECT_NAME":"STARLINK-33870","OBJECT_ID":"2025-091V","EPOCH":"2025-11-24T22:16:43.021344","MEAN_MOTION":15.27598003,"ECCENTRICITY":1.29e-5,"INCLINATION":42.9944,"RA_OF_ASC_NODE":283.8799,"ARG_OF_PERICENTER":288.0026,"MEAN_ANOMALY":72.0811,"EPHEMERIS_TYPE":0,"CLASSIFICATION_TYPE":"U","NORAD_CAT_ID":63794,"ELEMENT_SET_NO":999,"REV_AT_EPOCH":3288,"BSTAR":0.0008626,"MEAN_MOTION_DOT":0.00023564,"MEAN_MOTION_DDOT":0},{"OBJECT_NAME":"STARLINK-33867","OBJECT_ID":"2025-091W","EPOCH":"2025-11-24T05:50:56.524992","MEAN_MOTION":15.27613471,"ECCENTRICITY":0.00033041,"INCLINATION":42.9996,"RA_OF_ASC_NODE":288.2012,"ARG_OF_PERICENTER":236.8524,"MEAN_ANOMALY":123.2011,"EPHEMERIS_TYPE":0,"CLASSIFICATION_TYPE":"U","NORAD_CAT_ID":63795,"ELEMENT_SET_NO":999,"REV_AT_EPOCH":3277,"BSTAR":0.0011352566,"MEAN_MOTION_DOT":0.00031145,"MEAN_MOTION_DDOT":0},{"OBJECT_NAME":"STARLINK-33918","OBJECT_ID":"2025-091X","EPOCH":"2025-11-24T13:43:35.095872","MEAN_MOTION":15.27593955,"ECCENTRICITY":5.806e-5,"INCLINATION":43,"RA_OF_ASC_NODE":286.3655,"ARG_OF_PERICENTER":334.0478,"MEAN_ANOMALY":26.0344,"EPHEMERIS_TYPE":0,"CLASSIFICATION_TYPE":"U","NORAD_CAT_ID":63796,"ELEMENT_SET_NO":999,"REV_AT_EPOCH":3287,"BSTAR":0.00062129399,"MEAN_MOTION_DOT":0.00016881,"MEAN_MOTION_DDOT":0},{"OBJECT_NAME":"STARLINK-33712","OBJECT_ID":"2025-091Y","EPOCH":"2025-11-24T23:00:26.652384","MEAN_MOTION":15.2759469,"ECCENTRICITY":0.0001278,"INCLINATION":43.0028,"RA_OF_ASC_NODE":287.6288,"ARG_OF_PERICENTER":263.7898,"MEAN_ANOMALY":96.2808,"EPHEMERIS_TYPE":0,"CLASSIFICATION_TYPE":"U","NORAD_CAT_ID":63797,"ELEMENT_SET_NO":999,"REV_AT_EPOCH":3284,"BSTAR":0.0011268,"MEAN_MOTION_DOT":0.0003089,"MEAN_MOTION_DDOT":0},{"OBJECT_NAME":"STARLINK-33827","OBJECT_ID":"2025-091Z","EPOCH":"2025-11-24T22:51:52.205184","MEAN_MOTION":15.27605908,"ECCENTRICITY":0.0001364,"INCLINATION":43.0011,"RA_OF_ASC_NODE":284.0566,"ARG_OF_PERICENTER":254.2378,"MEAN_ANOMALY":105.8323,"EPHEMERIS_TYPE":0,"CLASSIFICATION_TYPE":"U","NORAD_CAT_ID":63798,"ELEMENT_SET_NO":999,"REV_AT_EPOCH":3288,"BSTAR":0.0016694,"MEAN_MOTION_DOT":0.00045999,"MEAN_MOTION_DDOT":0},{"OBJECT_NAME":"STARLINK-33899","OBJECT_ID":"2025-091AA","EPOCH":"2025-11-25T03:23:14.311968","MEAN_MOTION":15.27599102,"ECCENTRICITY":7.62e-5,"INCLINATION":43.0018,"RA_OF_ASC_NODE":282.8926,"ARG_OF_PERICENTER":307.4762,"MEAN_ANOMALY":52.602,"EPHEMERIS_TYPE":0,"CLASSIFICATION_TYPE":"U","NORAD_CAT_ID":63799,"ELEMENT_SET_NO":999,"REV_AT_EPOCH":3302,"BSTAR":0.0013315,"MEAN_MOTION_DOT":0.00036581,"MEAN_MOTION_DDOT":0},{"OBJECT_NAME":"STARLINK-33900","OBJECT_ID":"2025-091AB","EPOCH":"2025-11-24T21:01:02.901792","MEAN_MOTION":15.27605544,"ECCENTRICITY":9.36e-5,"INCLINATION":42.9983,"RA_OF_ASC_NODE":284.3446,"ARG_OF_PERICENTER":20.5002,"MEAN_ANOMALY":339.5887,"EPHEMERIS_TYPE":0,"CLASSIFICATION_TYPE":"U","NORAD_CAT_ID":63800,"ELEMENT_SET_NO":999,"REV_AT_EPOCH":3298,"BSTAR":0.00094104,"MEAN_MOTION_DOT":0.00025744,"MEAN_MOTION_DDOT":0}]
